start=new Date('2022-10-13T00:00:00.000Z').valueOf();
sats=[{"OBJECT_ID":"2022-114AT","TLE_LINE1":"1 53859U 22114AT  22285.91667824 -.00000940  00000-0 -22821-5 0  9997","RCS_SIZE":"LARGE","MEAN_MOTION_DDOT":"0.0000000000000","MEAN_ELEMENT_THEORY":"SGP4","MEAN_ANOMALY":"159.2849","EPOCH":"2022-10-12T22:00:00.999936","REF_FRAME":"TEME","OBJECT_TYPE":"PAYLOAD","GP_ID":"214899187","SEMIMAJOR_AXIS":"6727.883","PERIAPSIS":"349.009","LAUNCH_DATE":"2022-09-19","MEAN_MOTION":"15.73204299","ARG_OF_PERICENTER":"102.4820","OBJECT_NAME":"STARLINK-4790","RA_OF_ASC_NODE":"140.6212","NORAD_CAT_ID":"53859","EPHEMERIS_TYPE":"0","REV_AT_EPOCH":"433","INCLINATION":"53.2175","SITE":"AFETR","TIME_SYSTEM":"UTC","ECCENTRICITY":"0.00010980","TLE_LINE2":"2 53859  53.2175 140.6212 0001098 102.4820 159.2849 15.73204299  4336","BSTAR":"-0.00000228210000","CLASSIFICATION_TYPE":"U","ELEMENT_SET_NO":"999","COUNTRY_CODE":"US","FILE":"3606862","DECAY_DATE":null,"APOAPSIS":"350.487","MEAN_MOTION_DOT":"-0.00000940","PERIOD":"91.533","CENTER_NAME":"EARTH"},{"COUNTRY_CODE":"US","FILE":"3606891","DECAY_DATE":null,"APOAPSIS":"350.584","MEAN_MOTION_DOT":"-0.00000922","PERIOD":"91.533","CENTER_NAME":"EARTH","REV_AT_EPOCH":"130","INCLINATION":"53.2175","SITE":"AFETR","TIME_SYSTEM":"UTC","ECCENTRICITY":"0.00012420","TLE_LINE2":"2 53860  53.2175 140.6156 0001242 103.2994 161.4481 15.73204277  1304","BSTAR":"-0.00000215300000","CLASSIFICATION_TYPE":"U","ELEMENT_SET_NO":"999","PERIAPSIS":"348.912","SEMIMAJOR_AXIS":"6727.883","LAUNCH_DATE":"2022-09-19","MEAN_MOTION":"15.73204277","OBJECT_NAME":"STARLINK-4799","ARG_OF_PERICENTER":"103.2994","RA_OF_ASC_NODE":"140.6156","EPHEMERIS_TYPE":"0","NORAD_CAT_ID":"53860","RCS_SIZE":"LARGE","TLE_LINE1":"1 53860U 22114AU  22285.91667824 -.00000922  00000-0 -21530-5 0  9995","OBJECT_ID":"2022-114AU","MEAN_MOTION_DDOT":"0.0000000000000","MEAN_ELEMENT_THEORY":"SGP4","MEAN_ANOMALY":"161.4481","EPOCH":"2022-10-12T22:00:00.999936","REF_FRAME":"TEME","GP_ID":"214925303","OBJECT_TYPE":"PAYLOAD"},{"CLASSIFICATION_TYPE":"U","ELEMENT_SET_NO":"999","TLE_LINE2":"2 53861  53.2175 140.6177 0001468 101.0504 162.5048 15.73204281  1307","BSTAR":"-0.00000208520000","SITE":"AFETR","ECCENTRICITY":"0.00014680","TIME_SYSTEM":"UTC","REV_AT_EPOCH":"130","INCLINATION":"53.2175","CENTER_NAME":"EARTH","MEAN_MOTION_DOT":"-0.00000913","PERIOD":"91.533","DECAY_DATE":null,"APOAPSIS":"350.736","COUNTRY_CODE":"US","FILE":"3606891","GP_ID":"214924464","OBJECT_TYPE":"PAYLOAD","EPOCH":"2022-10-12T22:00:00.999936","REF_FRAME":"TEME","MEAN_ELEMENT_THEORY":"SGP4","MEAN_ANOMALY":"162.5048","RCS_SIZE":"LARGE","OBJECT_ID":"2022-114AV","TLE_LINE1":"1 53861U 22114AV  22285.91667824 -.00000913  00000-0 -20852-5 0  9992","MEAN_MOTION_DDOT":"0.0000000000000","RA_OF_ASC_NODE":"140.6177","EPHEMERIS_TYPE":"0","NORAD_CAT_ID":"53861","OBJECT_NAME":"STARLINK-4781","ARG_OF_PERICENTER":"101.0504","MEAN_MOTION":"15.73204281","PERIAPSIS":"348.760","SEMIMAJOR_AXIS":"6727.883","LAUNCH_DATE":"2022-09-19"},{"SITE":"AFETR","TIME_SYSTEM":"UTC","ECCENTRICITY":"0.00014820","REV_AT_EPOCH":"433","INCLINATION":"53.2175","CLASSIFICATION_TYPE":"U","ELEMENT_SET_NO":"999","BSTAR":"-0.00000251400000","TLE_LINE2":"2 53862  53.2175 140.6133 0001482 102.3668 163.5728 15.73204314  4330","DECAY_DATE":null,"APOAPSIS":"350.745","COUNTRY_CODE":"US","FILE":"3606518","CENTER_NAME":"EARTH","MEAN_MOTION_DOT":"-0.00000973","PERIOD":"91.533","MEAN_ELEMENT_THEORY":"SGP4","MEAN_ANOMALY":"163.5728","OBJECT_ID":"2022-114AW","TLE_LINE1":"1 53862U 22114AW  22285.91667824 -.00000973  00000-0 -25140-5 0  9994","RCS_SIZE":"LARGE","MEAN_MOTION_DDOT":"0.0000000000000","OBJECT_TYPE":"PAYLOAD","GP_ID":"214891181","EPOCH":"2022-10-12T22:00:00.999936","REF_FRAME":"TEME","MEAN_MOTION":"15.73204314","SEMIMAJOR_AXIS":"6727.883","PERIAPSIS":"348.751","LAUNCH_DATE":"2022-09-19","RA_OF_ASC_NODE":"140.6133","NORAD_CAT_ID":"53862","EPHEMERIS_TYPE":"0","ARG_OF_PERICENTER":"102.3668","OBJECT_NAME":"STARLINK-4792"},{"DECAY_DATE":null,"APOAPSIS":"350.687","COUNTRY_CODE":"US","FILE":"3606518","CENTER_NAME":"EARTH","MEAN_MOTION_DOT":"-0.00000980","PERIOD":"91.533","SITE":"AFETR","ECCENTRICITY":"0.00013960","TIME_SYSTEM":"UTC","REV_AT_EPOCH":"433","INCLINATION":"53.2175","CLASSIFICATION_TYPE":"U","ELEMENT_SET_NO":"999","TLE_LINE2":"2 53863  53.2175 140.6164 0001396  89.0643 175.0870 15.73204315  4330","BSTAR":"-0.00000256130000","MEAN_MOTION":"15.73204315","SEMIMAJOR_AXIS":"6727.883","PERIAPSIS":"348.809","LAUNCH_DATE":"2022-09-19","RA_OF_ASC_NODE":"140.6164","NORAD_CAT_ID":"53863","EPHEMERIS_TYPE":"0","ARG_OF_PERICENTER":"89.0643","OBJECT_NAME":"STARLINK-4788","MEAN_ELEMENT_THEORY":"SGP4","MEAN_ANOMALY":"175.0870","TLE_LINE1":"1 53863U 22114AX  22285.91667824 -.00000980  00000-0 -25613-5 0  9998","OBJECT_ID":"2022-114AX","RCS_SIZE":"LARGE","MEAN_MOTION_DDOT":"0.0000000000000","OBJECT_TYPE":"PAYLOAD","GP_ID":"214890731","EPOCH":"2022-10-12T22:00:00.999936","REF_FRAME":"TEME"},{"MEAN_MOTION_DDOT":"0.0000000000000","TLE_LINE1":"1 53864U 22114AY  22285.91667824 -.00001002  00000-0 -27237-5 0  9999","OBJECT_ID":"2022-114AY","RCS_SIZE":"LARGE","MEAN_ANOMALY":"171.7135","MEAN_ELEMENT_THEORY":"SGP4","REF_FRAME":"TEME","EPOCH":"2022-10-12T22:00:00.999936","OBJECT_TYPE":"PAYLOAD","GP_ID":"214890726","LAUNCH_DATE":"2022-09-19","SEMIMAJOR_AXIS":"6727.883","PERIAPSIS":"348.859","MEAN_MOTION":"15.73204320","ARG_OF_PERICENTER":"95.4184","OBJECT_NAME":"STARLINK-4779","NORAD_CAT_ID":"53864","EPHEMERIS_TYPE":"0","RA_OF_ASC_NODE":"140.6109","INCLINATION":"53.2175","REV_AT_EPOCH":"433","TIME_SYSTEM":"UTC","ECCENTRICITY":"0.00013210","SITE":"AFETR","BSTAR":"-0.00000272370000","TLE_LINE2":"2 53864  53.2175 140.6109 0001321  95.4184 171.7135 15.73204320  4332","ELEMENT_SET_NO":"999","CLASSIFICATION_TYPE":"U","FILE":"3606518","COUNTRY_CODE":"US","APOAPSIS":"350.637","DECAY_DATE":null,"PERIOD":"91.533","MEAN_MOTION_DOT":"-0.00001002","CENTER_NAME":"EARTH"},{"FILE":"3606518","COUNTRY_CODE":"US","APOAPSIS":"350.664","DECAY_DATE":null,"PERIOD":"91.533","MEAN_MOTION_DOT":"-0.00000976","CENTER_NAME":"EARTH","INCLINATION":"53.2175","REV_AT_EPOCH":"433","TIME_SYSTEM":"UTC","ECCENTRICITY":"0.00013610","SITE":"AFETR","BSTAR":"-0.00000253840000","TLE_LINE2":"2 53865  53.2175 140.6116 0001361 100.5096 166.0261 15.73204309  4339","ELEMENT_SET_NO":"999","CLASSIFICATION_TYPE":"U","LAUNCH_DATE":"2022-09-19","PERIAPSIS":"348.832","SEMIMAJOR_AXIS":"6727.883","MEAN_MOTION":"15.73204309","OBJECT_NAME":"STARLINK-4785","ARG_OF_PERICENTER":"100.5096","EPHEMERIS_TYPE":"0","NORAD_CAT_ID":"53865","RA_OF_ASC_NODE":"140.6116","MEAN_MOTION_DDOT":"0.0000000000000","RCS_SIZE":"LARGE","TLE_LINE1":"1 53865U 22114AZ  22285.91667824 -.00000976  00000-0 -25384-5 0  9990","OBJECT_ID":"2022-114AZ","MEAN_ANOMALY":"166.0261","MEAN_ELEMENT_THEORY":"SGP4","REF_FRAME":"TEME","EPOCH":"2022-10-12T22:00:00.999936","GP_ID":"214890734","OBJECT_TYPE":"PAYLOAD"},{"CENTER_NAME":"EARTH","PERIOD":"91.533","MEAN_MOTION_DOT":"-0.00001047","APOAPSIS":"350.448","DECAY_DATE":null,"FILE":"3606518","COUNTRY_CODE":"US","ELEMENT_SET_NO":"999","CLASSIFICATION_TYPE":"U","TLE_LINE2":"2 53866  53.2175 140.6074 0001041 105.6011 163.3191 15.73204343  4331","BSTAR":"-0.00000304870000","TIME_SYSTEM":"UTC","ECCENTRICITY":"0.00010410","SITE":"AFETR","INCLINATION":"53.2175","REV_AT_EPOCH":"433","EPHEMERIS_TYPE":"0","NORAD_CAT_ID":"53866","RA_OF_ASC_NODE":"140.6074","OBJECT_NAME":"STARLINK-4762","ARG_OF_PERICENTER":"105.6011","MEAN_MOTION":"15.73204343","LAUNCH_DATE":"2022-09-19","PERIAPSIS":"349.047","SEMIMAJOR_AXIS":"6727.883","GP_ID":"214891191","OBJECT_TYPE":"PAYLOAD","REF_FRAME":"TEME","EPOCH":"2022-10-12T22:00:00.999936","MEAN_ANOMALY":"163.3191","MEAN_ELEMENT_THEORY":"SGP4","MEAN_MOTION_DDOT":"0.0000000000000","RCS_SIZE":"LARGE","OBJECT_ID":"2022-114BA","TLE_LINE1":"1 53866U 22114BA  22285.91667824 -.00001047  00000-0 -30487-5 0  9991"},{"CENTER_NAME":"EARTH","MEAN_MOTION_DOT":"-0.00000998","PERIOD":"91.533","DECAY_DATE":null,"APOAPSIS":"350.448","COUNTRY_CODE":"US","FILE":"3606518","CLASSIFICATION_TYPE":"U","ELEMENT_SET_NO":"999","BSTAR":"-0.00000269710000","TLE_LINE2":"2 53867  53.2175 140.6092 0001041 105.2823 162.4456 15.73204314  4331","SITE":"AFETR","TIME_SYSTEM":"UTC","ECCENTRICITY":"0.00010410","REV_AT_EPOCH":"433","INCLINATION":"53.2175","RA_OF_ASC_NODE":"140.6092","EPHEMERIS_TYPE":"0","NORAD_CAT_ID":"53867","OBJECT_NAME":"STARLINK-4793","ARG_OF_PERICENTER":"105.2823","MEAN_MOTION":"15.73204314","PERIAPSIS":"349.048","SEMIMAJOR_AXIS":"6727.883","LAUNCH_DATE":"2022-09-19","GP_ID":"214890724","OBJECT_TYPE":"PAYLOAD","EPOCH":"2022-10-12T22:00:00.999936","REF_FRAME":"TEME","MEAN_ELEMENT_THEORY":"SGP4","MEAN_ANOMALY":"162.4456","RCS_SIZE":"LARGE","TLE_LINE1":"1 53867U 22114BB  22285.91667824 -.00000998  00000-0 -26971-5 0  9999","OBJECT_ID":"2022-114BB","MEAN_MOTION_DDOT":"0.0000000000000"},{"MEAN_MOTION":"15.73214549","LAUNCH_DATE":"2022-09-19","PERIAPSIS":"348.981","SEMIMAJOR_AXIS":"6727.854","EPHEMERIS_TYPE":"0","NORAD_CAT_ID":"53868","RA_OF_ASC_NODE":"140.5964","OBJECT_NAME":"STARLINK-4789","ARG_OF_PERICENTER":"119.1935","MEAN_ANOMALY":"158.3061","MEAN_ELEMENT_THEORY":"SGP4","MEAN_MOTION_DDOT":"0.0000000000000","RCS_SIZE":"LARGE","TLE_LINE1":"1 53868U 22114BC  22285.91667824 -.00019749  00000-0 -13654-3 0  9996","OBJECT_ID":"2022-114BC","GP_ID":"214890733","OBJECT_TYPE":"PAYLOAD","REF_FRAME":"TEME","EPOCH":"2022-10-12T22:00:00.999936","APOAPSIS":"350.457","DECAY_DATE":null,"FILE":"3606518","COUNTRY_CODE":"US","CENTER_NAME":"EARTH","PERIOD":"91.532","MEAN_MOTION_DOT":"-0.00019749","ECCENTRICITY":"0.00010970","TIME_SYSTEM":"UTC","SITE":"AFETR","INCLINATION":"53.2175","REV_AT_EPOCH":"433","ELEMENT_SET_NO":"999","CLASSIFICATION_TYPE":"U","BSTAR":"-0.00013654000000","TLE_LINE2":"2 53868  53.2175 140.5964 0001097 119.1935 158.3061 15.73214549  4335"}];
